GLOBALSTAR M001         
1 25162U 98008A   25036.93958937 -.00000050  00000+0  35558-3 0  9994
2 25162  52.0060 355.2304 0001606 347.7026  79.0077 12.38206578227457
GLOBALSTAR M004         
1 25163U 98008B   25037.46746272 -.00000081  00000+0  12472-3 0  9995
2 25163  52.0000  92.9445 0002758   9.7566  94.8956 12.63387426245266
GLOBALSTAR M002         
1 25164U 98008C   25038.47672625 -.00000059  00000+0  35275-3 0  9999
2 25164  51.9980 205.4302 0000266 222.9755 137.1044 11.61507952169063
GLOBALSTAR M003         
1 25165U 98008D   25038.75251439  .00000010  00000+0  10646-2 0  9997
2 25165  51.9982 166.9947 0008164  37.7534 114.2096 12.12070068217612
GLOBALSTAR M014         
1 25306U 98023A   25037.60198946 -.00000083  00000+0 -95684-4 0  9996
2 25306  51.9832 133.5950 0001776 121.6539 346.4078 11.65478108175949
GLOBALSTAR M006         
1 25307U 98023B   25037.73292552 -.00000053  00000+0  46297-3 0  9990
2 25307  51.9917 180.8600 0003045 212.5825 255.6784 11.58172410201719
GLOBALSTAR M015         
1 25308U 98023C   25038.85219359 -.00000065  00000+0  19171-3 0  9993
2 25308  51.9808 270.6201 0012069 202.3509 242.3984 11.48857739179583
GLOBALSTAR M008         
1 25309U 98023D   25038.78057368 -.00000063  00000+0  26282-3 0  9995
2 25309  51.9941 213.2362 0001549 256.1245 206.0480 12.36062393222150
